id,admin_fname,admin_lname,admin_uname,admin_email,admin_password,admin_phone_number,sheler_id
1,Apollo,Lewis,ALewis,ALewis@google.com,cudxueuejl,555-131-7905,26
2,Clarissa,Lee,CLee,CLee@google.com,bdzzjoembx,555-395-4003,20
3,Cassius,Jackson,CJackson,CJackson@google.com,lghnomgxjg,555-174-8156,47
4,Sadie,Jones,SJones,SJones@google.com,ultqlrokbg,555-285-1404,41
5,Evangeline,Lewis,ELewis,ELewis@google.com,ixouxjjdss,555-955-9049,44
6,Ava,Wilson,AWilson,AWilson@google.com,ojkspbistl,555-194-8599,39
7,Victor,Thompson,VThompson,VThompson@google.com,qjioktpxgi,555-952-5780,12
8,Conor,Harris,CHarris,CHarris@google.com,hrbrvdgpog,555-342-6874,14
9,Rayden,Martin,RMartin,RMartin@google.com,zdmwepqlcy,555-784-3021,5
10,Ellison,Martinez,EMartinez,EMartinez@google.com,skgyjqhidc,555-807-9118,37
11,Darrell,Hernandez,DHernandez,DHernandez@google.com,yruodgmfbi,555-838-0167,43
12,Terrance,Walker,TWalker,TWalker@google.com,antuqhksxz,555-714-9897,10
13,Cheyenne,Lopez,CLopez,CLopez@google.com,kpvgjuwclo,555-772-8459,49
14,Russell,Lewis,RLewis,RLewis@google.com,uowrukyrut,555-777-0451,4
15,Luka,Garcia,LGarcia,LGarcia@google.com,wzbndypglv,555-317-1274,18
16,Giana,Smith,GSmith,GSmith@google.com,ezybgwlngg,555-642-8298,6
17,Lyle,Gonzalez,LGonzalez,LGonzalez@google.com,ignydblvso,555-683-6544,16
18,Leonardo,Robinson,LRobinson,LRobinson@google.com,tmxumyfsqj,555-870-1934,7
19,Grey,Gonzalez,GGonzalez,GGonzalez@google.com,xooooxkipi,555-113-7256,24
20,Wade,Gonzalez,WGonzalez,WGonzalez@google.com,qfekoquted,555-601-1549,34
21,Blakely,Anderson,BAnderson,BAnderson@google.com,avsgqyczfa,555-668-6551,13
22,Chandler,Gonzalez,CGonzalez,CGonzalez@google.com,lnufmmwznn,555-626-5207,27
23,Terrance,Jackson,TJackson,TJackson@google.com,lwiofghjxp,555-228-3307,50
24,Charlie,Martinez,CMartinez,CMartinez@google.com,lfdfmgcdnf,555-866-9747,30
25,Lena,Garcia,LGarcia,LGarcia@google.com,ynxdffdebr,555-584-4815,46
26,Tate,Lewis,TLewis,TLewis@google.com,mlwafcnvru,555-816-9772,3
27,Gannon,Johnson,GJohnson,GJohnson@google.com,beaqsqujfv,555-139-9989,1
28,Ellison,Williams,EWilliams,EWilliams@google.com,akgaqqbzaa,555-189-1580,2
29,Ashlynn,Thomas,AThomas,AThomas@google.com,apbwcshtma,555-636-7529,23
30,Rory,Hernandez,RHernandez,RHernandez@google.com,kxzdivsrbv,555-812-3549,11
31,Chaim,White,CWhite,CWhite@google.com,txugobdgsp,555-651-7330,38
32,Branson,Clark,BClark,BClark@google.com,xbijnguqux,555-799-5862,32
33,Belle,Gonzalez,BGonzalez,BGonzalez@google.com,ooilahtfcl,555-533-0865,28
34,Amara,Williams,AWilliams,AWilliams@google.com,qszrhekjgc,555-525-6039,35
35,Raiden,Perez,RPerez,RPerez@google.com,qitsdlhwrf,555-438-4198,31
36,Ivanna,Martin,IMartin,IMartin@google.com,mlwayfxaej,555-444-7077,9
37,Emerson,Smith,ESmith,ESmith@google.com,bxslyabolv,555-108-3527,29
38,Hadley,Martin,HMartin,HMartin@google.com,jhreiuvntv,555-399-4903,19
39,Aadhya,Garcia,AGarcia,AGarcia@google.com,obuaesufts,555-700-6710,15
40,Camila,Walker,CWalker,CWalker@google.com,kvnnzwmada,555-564-1359,36
41,Brennan,Wilson,BWilson,BWilson@google.com,owttnfnaai,555-690-8515,33
42,Leslie,Johnson,LJohnson,LJohnson@google.com,ouauavstvw,555-936-4601,17
43,Malia,Moore,MMoore,MMoore@google.com,mwwikztubv,555-573-1476,45
44,Jemma,Anderson,JAnderson,JAnderson@google.com,wksihggbld,555-625-2126,22
45,Elisa,Martin,EMartin,EMartin@google.com,sebiyuwokk,555-333-3519,40
46,Micah,Lewis,MLewis,MLewis@google.com,vfahwrbetj,555-897-1039,8
47,Remy,Hernandez,RHernandez,RHernandez@google.com,trboiutgos,555-622-4181,48
48,Soren,Brown,SBrown,SBrown@google.com,qidvtialgm,555-430-2159,51
49,Maggie,Wilson,MWilson,MWilson@google.com,ggapqtfwlq,555-361-7123,21
50,Easton,Perez,EPerez,EPerez@google.com,qqaloqammo,555-703-3256,25
